NORAD_CAT_ID,OBJECT_NAME,OBJECT_TYPE,EPOCH,MEAN_MOTION,ECCENTRICITY,INCLINATION,RA_OF_ASC_NODE,ARG_OF_PERICENTER,MEAN_ANOMALY,BSTAR,MEAN_MOTION_DOT,MEAN_MOTION_DDOT,TLE_LINE0,TLE_LINE1,TLE_LINE2,SEMIMAJOR_AXIS,PERIOD,APOGEE,PERIGEE,DECAYED
52382.0,STARLINK-3799,PAYLOAD,2024-01-01 11:18:33,15.08844162,0.0001358,53.2157,172.4728,82.5805,277.5341,4.4553e-05,4.21e-06,0.0,0 STARLINK-3799,1 52382U 22045BD  24001.47122126  .00000421  00000-0  44553-4 0  9997,2 52382  53.2157 172.4728 0001358  82.5805 277.5341 15.08844162 95429,6917.868,95.437,540.672,538.793,0.0
52382.0,STARLINK-3799,PAYLOAD,2024-01-01 17:40:05,15.08846004,0.0001356,53.2157,171.2836,81.6147,278.4999,5.9499e-05,6.59e-06,0.0,0 STARLINK-3799,1 52382U 22045BD  24001.73617859  .00000659  00000-0  59499-4 0  9996,2 52382  53.2157 171.2836 0001356  81.6147 278.4999 15.08846004 95463,6917.862,95.437,540.665,538.789,0.0
52382.0,STARLINK-3799,PAYLOAD,2024-01-02 14:20:06,15.08839146,0.0001337,53.2157,167.4177,84.0305,276.084,4.3855e-05,4.1e-06,0.0,0 STARLINK-3799,1 52382U 22045BD  24002.59730223  .00000410  00000-0  43855-4 0  9996,2 52382  53.2157 167.4177 0001337  84.0305 276.0840 15.08839146 95592,6917.883,95.438,540.673,538.823,0.0
52382.0,STARLINK-3799,PAYLOAD,2024-01-02 17:30:53,15.08839514,0.0001302,53.2159,166.8227,89.319,270.7951,4.1544e-05,3.73e-06,0.0,0 STARLINK-3799,1 52382U 22045BD  24002.72978174  .00000373  00000-0  41544-4 0  9991,2 52382  53.2159 166.8227 0001302  89.3190 270.7951 15.08839514 95611,6917.882,95.438,540.648,538.846,0.0
52382.0,STARLINK-3799,PAYLOAD,2024-01-02 20:41:39,15.0884066,0.0001296,53.2159,166.2276,91.86,268.254,4.6389e-05,4.5e-06,0.0,0 STARLINK-3799,1 52382U 22045BD  24002.86226043  .00000450  00000-0  46389-4 0  9995,2 52382  53.2159 166.2276 0001296  91.8600 268.2540 15.08840660 95637,6917.878,95.438,540.64,538.847,0.0
52382.0,STARLINK-3799,PAYLOAD,2024-01-03 11:00:08,15.0883673,0.0001363,53.2165,163.5504,94.4681,265.6467,-5.7016e-05,-1.195e-05,0.0,0 STARLINK-3799,1 52382U 22045BD  24003.45842707 -.00001195  00000-0 -57016-4 0  9990,2 52382  53.2165 163.5504 0001363  94.4681 265.6467 15.08836730 95723,6917.89,95.438,540.698,538.812,0.0
52382.0,STARLINK-3799,PAYLOAD,2024-01-03 14:10:54,15.08836991,0.0001348,53.2164,162.9556,96.7998,263.3148,-5.2368e-05,-1.121e-05,0.0,0 STARLINK-3799,1 52382U 22045BD  24003.59090666 -.00001121  00000-0 -52368-4 0  9998,2 52382  53.2164 162.9556 0001348  96.7998 263.3148 15.08836991 95743,6917.89,95.438,540.687,538.822,0.0
52382.0,STARLINK-3799,PAYLOAD,2024-01-03 15:46:17,15.08837001,0.0001304,53.2161,162.6581,94.5522,265.562,-5.3364e-05,-1.137e-05,0.0,0 STARLINK-3799,1 52382U 22045BD  24003.65714675 -.00001137  00000-0 -53364-4 0  9992,2 52382  53.2161 162.6581 0001304  94.5522 265.5620 15.08837001 95759,6917.89,95.438,540.657,538.852,0.0
52382.0,STARLINK-3799,PAYLOAD,2024-01-04 14:01:41,15.08836669,0.0001302,53.2165,158.4937,97.2815,262.8326,3.5067e-05,2.7e-06,0.0,0 STARLINK-3799,1 52382U 22045BD  24004.58450523  .00000270  00000-0  35067-4 0  9999,2 52382  53.2165 158.4937 0001302  97.2815 262.8326 15.08836669 95891,6917.891,95.438,540.656,538.855,0.0
52382.0,STARLINK-3799,PAYLOAD,2024-01-04 20:23:13,15.08839898,0.0001298,53.2165,157.3047,95.2291,264.8849,5.7508e-05,6.27e-06,0.0,0 STARLINK-3799,1 52382U 22045BD  24004.84946288  .00000627  00000-0  57508-4 0  9996,2 52382  53.2165 157.3047 0001298  95.2291 264.8849 15.08839898 95935,6917.881,95.438,540.644,538.848,0.0
52382.0,STARLINK-3799,PAYLOAD,2024-01-05 12:17:05,15.08832122,0.0001307,53.2163,154.3313,99.6823,260.4317,3.1454e-05,2.13e-06,0.0,0 STARLINK-3799,1 52382U 22045BD  24005.51187106  .00000213  00000-0  31454-4 0  9990,2 52382  53.2163 154.3313 0001307  99.6823 260.4317 15.08832122 96033,6917.904,95.438,540.674,538.865,0.0
52382.0,STARLINK-3799,PAYLOAD,2024-01-05 13:52:28,15.08831943,0.0001311,53.2163,154.0339,99.7265,260.3875,2.9243e-05,1.77e-06,0.0,0 STARLINK-3799,1 52382U 22045BD  24005.57811156  .00000177  00000-0  29243-4 0  9997,2 52382  53.2163 154.0339 0001311  99.7265 260.3875 15.08831943 96043,6917.905,95.438,540.677,538.863,0.0
52382.0,STARLINK-3799,PAYLOAD,2024-01-05 15:27:51,15.08833307,0.0001315,53.2164,153.7364,99.214,260.9001,3.8952e-05,3.32e-06,0.0,0 STARLINK-3799,1 52382U 22045BD  24005.64435073  .00000332  00000-0  38952-4 0  9995,2 52382  53.2164 153.7364 0001315  99.2140 260.9001 15.08833307 96053,6917.901,95.438,540.676,538.856,0.0
52382.0,STARLINK-3799,PAYLOAD,2024-01-06 18:29:24,15.08844937,0.0001349,53.2167,148.6812,94.6111,265.5035,5.8064e-05,6.36e-06,0.0,0 STARLINK-3799,1 52382U 22045BD  24006.77042578  .00000636  00000-0  58064-4 0  9997,2 52382  53.2167 148.6812 0001349  94.6111 265.5035 15.08844937 96229,6917.865,95.437,540.664,538.797,0.0
52382.0,STARLINK-3799,PAYLOAD,2024-01-07 13:34:03,15.08835156,0.0001394,53.2169,145.112,98.5879,261.5271,1.4665e-05,-5.5e-07,0.0,0 STARLINK-3799,1 52382U 22045BD  24007.56531496 -.00000055  00000-0  14665-4 0  9992,2 52382  53.2169 145.1120 0001394  98.5879 261.5271 15.08835156 96343,6917.895,95.438,540.725,538.796,0.0
52382.0,STARLINK-3799,PAYLOAD,2024-01-07 16:44:49,15.08839508,0.0001423,53.217,144.5186,83.3426,276.7728,6.7218e-05,7.82e-06,0.0,0 STARLINK-3799,1 52382U 22045BD  24007.69779157  .00000782  00000-0  67218-4 0  9992,2 52382  53.2170 144.5186 0001423  83.3426 276.7728 15.08839508 96365,6917.882,95.438,540.731,538.762,0.0
52382.0,STARLINK-3799,PAYLOAD,2024-01-08 13:24:49,15.088452,0.0001323,53.216,140.6566,82.4157,277.6985,2.2023e-05,6.3e-07,0.0,0 STARLINK-3799,1 52382U 22045BD  24008.55890967  .00000063  00000-0  22023-4 0  9998,2 52382  53.2160 140.6566 0001323  82.4157 277.6985 15.08845200 96498,6917.864,95.437,540.645,538.814,0.0
52382.0,STARLINK-3799,PAYLOAD,2024-01-08 15:00:12,15.08846714,0.000143,53.2161,140.3593,75.7048,284.4103,3.8562e-05,3.26e-06,0.0,0 STARLINK-3799,1 52382U 22045BD  24008.62514848  .00000326  00000-0  38562-4 0  9994,2 52382  53.2161 140.3593 0001430  75.7048 284.4103 15.08846714 96500,6917.86,95.437,540.714,538.736,0.0
52382.0,STARLINK-3799,PAYLOAD,2024-01-09 13:15:36,15.08834744,0.0001488,53.2161,136.1963,71.7418,288.3736,0.00013352,1.837e-05,0.0,0 STARLINK-3799,1 52382U 22045BD  24009.55251112  .00001837  00000-0  13352-3 0  9996,2 52382  53.2161 136.1963 0001488  71.7418 288.3736 15.08834744 96644,6917.896,95.438,540.791,538.732,0.0
52382.0,STARLINK-3799,PAYLOAD,2024-01-09 14:50:59,15.08844238,0.0001512,53.216,135.8988,69.8855,290.23,2.5796e-05,1.23e-06,0.0,0 STARLINK-3799,1 52382U 22045BD  24009.61874935  .00000123  00000-0  25796-4 0  9990,2 52382  53.2160 135.8988 0001512  69.8855 290.2300 15.08844238 96656,6917.867,95.437,540.778,538.686,0.0
52382.0,STARLINK-3799,PAYLOAD,2024-01-10 11:31:01,15.08839482,0.0001386,53.2161,132.0317,75.9933,284.1214,-3.551e-05,-8.53e-06,0.0,0 STARLINK-3799,1 52382U 22045BD  24010.47987332 -.00000853  00000-0 -35510-4 0  9999,2 52382  53.2161 132.0317 0001386  75.9933 284.1214 15.08839482 96781,6917.882,95.438,540.706,538.788,0.0
52382.0,STARLINK-3799,PAYLOAD,2024-01-10 14:41:47,15.08841831,0.0001421,53.216,131.437,77.6642,282.4509,-1.2583e-05,-4.88e-06,0.0,0 STARLINK-3799,1 52382U 22045BD  24010.61235125 -.00000488  00000-0 -12583-4 0  9990,2 52382  53.2160 131.4370 0001421  77.6642 282.4509 15.08841831 96800,6917.875,95.437,540.723,538.757,0.0
52382.0,STARLINK-3799,PAYLOAD,2024-01-11 14:32:33,15.08844267,0.0001278,53.2163,126.9757,80.1594,279.9542,5.1875e-05,5.38e-06,0.0,0 STARLINK-3799,1 52382U 22045BD  24011.60594778  .00000538  00000-0  51875-4 0  9993,2 52382  53.2163 126.9757 0001278  80.1594 279.9542 15.08844267 96956,6917.867,95.437,540.616,538.848,0.0
52382.0,STARLINK-3799,PAYLOAD,2024-01-12 11:12:35,15.08836862,0.0001275,53.2162,123.1103,97.0526,263.0611,6.8242e-06,-1.79e-06,0.0,0 STARLINK-3799,1 52382U 22045BD  24012.46707575 -.00000179  00000-0  68242-5 0  9998,2 52382  53.2162 123.1103 0001275  97.0526 263.0611 15.08836862 97086,6917.89,95.438,540.637,538.873,0.0
52382.0,STARLINK-3799,PAYLOAD,2024-01-12 14:23:21,15.08839341,0.0001275,53.2164,122.5159,84.2474,275.8664,4.3507e-05,4.05e-06,0.0,0 STARLINK-3799,1 52382U 22045BD  24012.59955402  .00000405  00000-0  43507-4 0  9993,2 52382  53.2164 122.5159 0001275  84.2474 275.8664 15.08839341 97109,6917.882,95.438,540.629,538.865,0.0
52382.0,STARLINK-3799,PAYLOAD,2024-01-13 14:14:08,15.0884309,0.0001698,53.217,118.0558,48.2235,311.8902,-5.1391e-06,-3.7e-06,0.0,0 STARLINK-3799,1 52382U 22045BD  24013.59315833 -.00000370  00000-0 -51391-5 0  9996,2 52382  53.2170 118.0558 0001698  48.2235 311.8902 15.08843090 97251,6917.871,95.437,540.911,538.561,0.0
52382.0,STARLINK-3799,PAYLOAD,2024-01-14 14:04:55,15.08852134,0.00013,53.2172,113.5934,80.9997,279.1142,0.00012932,1.771e-05,0.0,0 STARLINK-3799,1 52382U 22045BD  24014.58674912  .00001771  00000-0  12932-3 0  9992,2 52382  53.2172 113.5934 0001300  80.9997 279.1142 15.08852134 97407,6917.843,95.437,540.608,538.809,0.0
52382.0,STARLINK-3799,PAYLOAD,2024-01-15 12:20:19,15.08854426,0.000136,53.216,109.4339,68.9795,291.1342,-1.4827e-05,-5.24e-06,0.0,0 STARLINK-3799,1 52382U 22045BD  24015.51411180 -.00000524  00000-0 -14827-4 0  9995,2 52382  53.2160 109.4339 0001360  68.9795 291.1342 15.08854426 97542,6917.836,95.437,540.642,538.76,0.0
52382.0,STARLINK-3799,PAYLOAD,2024-01-15 13:55:42,15.08849664,0.0001539,53.216,109.1352,63.1195,296.9955,0.00011463,1.537e-05,0.0,0 STARLINK-3799,1 52382U 22045BD  24015.58035152  .00001537  00000-0  11463-3 0  9998,2 52382  53.2160 109.1352 0001539  63.1195 296.9955 15.08849664 97555,6917.851,95.437,540.781,538.651,0.0
52382.0,STARLINK-3799,PAYLOAD,2024-01-16 12:11:07,15.08841186,0.0001576,53.2169,104.9722,79.7987,280.3183,-3.8959e-05,-9.08e-06,0.0,0 STARLINK-3799,1 52382U 22045BD  24016.50772275 -.00000908  00000-0 -38959-4 0  9998,2 52382  53.2169 104.9722 0001576  79.7987 280.3183 15.08841186 97697,6917.877,95.437,540.832,538.652,0.0
